#dP2022  4 24 12  0  0.00000000      96 __u+U ITR00 EXT  IAC
## 2207  43200.00000000   900.00000000 59693 0.5000000000000
+  117   C06C07C08C09C10C11C12C13C14C16C19C20C21C22C23C24C25
+        C26C27C28C29C30C32C33C34C35C36C37C38C39C40C41C42C43
+        C44C45C46E01E02E03E04E05E07E08E09E10E11E12E13E14E15
+        E18E19E21E24E25E26E27E30E31E33E34E36G01G02G03G04G05
+        G06G07G08G09G10G11G12G13G14G15G16G17G18G19G20G21G22
+        G23G24G25G26G27G28G29G30G31G32J02J03R01R02R03R04R05
+        R07R08R09R11R12R13R14R15R17R18R19R20R21R22R24  0  0
++        10 11  9 11  7  9  9  9  9  9  7  7  9  9  9  9 10
++        10  7  8  9  9  7 10 10  9  8  9 10  9  9  9 10 10
++         9  9  7  7  8  8  8  8  8  8  8  9  7  9 10  7  7
++         8  8  7  8  8 10  8  8  7  9  8  9  7  7  7  8  8
++         7  8  6  8  7  8  6  7  7  7  8  8  8  8  8  7  7
++         8  7  7  7  8  6  8  8  9  8  9 10  9  8  9  8  8
++         8  8  8  9  8  7  9  8  8  9  9 10  8  9  8  0  0
%c M  cc GPS ccc cccc cccc cccc cccc ccccc ccccc ccccc ccccc
%c cc cc ccc ccc cccc cccc cccc cccc ccccc ccccc ccccc ccccc
%f  0.0000000  0.000000000  0.00000000000  0.000000000000000
%f  0.0000000  0.000000000  0.00000000000  0.000000000000000
%i    0    0    0    0      0      0      0      0         0
%i    0    0    0    0      0      0      0      0         0
/* IAC                                ULTRA-RAPID PREDICTION
/* S/V CLOCKS ARE ALIGNED TO GNSS TIME                      
/* G:C1WC2W R:C1PC2P E:C1XC5X C:C2IC6I J:C1CC2S             
/* PCV:IGS14_2196 OL/AL:FES2004  NONE     YN ORB:CoN CLK:CoN
*  2022 04 24 16 15  0.00000000
PC06  -4877.006813  38952.513053  15694.130538   -143.895518
PC07  -9798.552942  25244.936172 -32332.414354    -81.310806
PC08 -20382.836415  32018.623530  18223.540552    277.170058
PC09    501.355379  41964.735565   6606.430570   -726.270640
PC10   -728.976696  27075.270722 -32018.055162    135.082171
PC11  11072.745580  23734.708883   9656.048442    311.673735
PC12    188.396090  26740.616047  -7934.095033   -624.839075
PC13 -11609.976301  31993.867812  24833.240420    -51.541030
PC14  18590.379295  15642.468942  13701.663190    462.399325
PC16  -6254.990330  37666.261125  18341.182536    123.561163
PC19 -25014.525536 -11320.886407  -5022.832800    875.543756
PC20 -11156.811795 -17115.489732 -19002.792367   -889.454533
PC21 -10412.732549  12947.520988  22447.883634   -170.712595
PC22 -24982.125384   1196.887422  12418.430779   -970.855810
PC23  23332.510983 -10418.069098 -11216.221658   -931.328269
PC24  -1322.915304  20056.297761 -19359.711290   -956.627854
PC25  16585.703386   5646.254087 -21732.440706   -746.302622
PC26 -15904.075007  21914.046200  -6689.416453    747.196768
PC27   6096.136097 -22502.911128  15299.519456    712.884019
PC28  15107.843191  -5125.021623  22894.995695     59.056902
PC29 -15985.576899 -15330.461847 -16982.668368    545.721666
PC30  -7108.353930 -26966.332195   -517.002465    497.458347
PC32  10320.700546 -13012.249249 -22401.732374   -962.746456
PC33  24999.584602  11256.405356   5157.245478   -966.627122
PC34   7678.813654  26803.551501   1463.705675   -418.352293
PC35 -15283.164229   4631.684342 -22897.345825    243.659724
PC36 -16069.690743  -6520.568793  21883.559547   -963.864240
PC37  17205.196721 -21259.650124   5612.118949   -919.424808
PC38 -24520.542861  32474.054279  10798.453583    227.440702
PC39  -8445.632946  33972.994095  23655.267525     34.950065
PC40 -14232.260570  18679.692561 -35057.449324    263.545326
PC41  25173.267333   -929.994245 -11948.062782   -966.413837
PC42  10004.756004  17221.178157  19587.408859   -956.436071
PC43  15837.791475  16058.838590  16437.395716   -928.039574
PC44  -5531.020736  22626.978567 -15409.675599    638.248758
PC45 -23287.228780  10685.758264  11033.012255    739.775775
PC46    -21.141764 -19344.247694  20125.929526   -289.220092
PE01  -2690.686557 -16440.608775  24463.861672   -622.621232
PE02   2909.765093  16397.931766 -24475.572135    294.915283
PE03  11349.222259  24511.785803  12096.079996   -551.393020
PE04 -22740.283507 -17979.906280   5997.560203  -1013.577498
PE05  -6931.595345  16747.622374  23410.462215   -187.816413
PE07  20901.921999    643.063395 -20933.900200   -661.851988
PE08  22844.833989  17728.618999  -6287.362842   -517.836600
PE09 -20759.298310   -510.934757  21109.159941   -495.436176
PE10 -16170.093459  -1587.248700 -24751.896188   -508.757229
PE11 -17593.158394  10176.546680 -21539.369299   3865.657680
PE12 -12401.171414 -12533.297240 -23775.013086   4646.746358
PE13  17496.321417  -9460.909268  21917.327019    428.241781
PE14   9263.742518 -13561.042173  18255.116030  -1825.514995
PE15  12272.807086  12676.441027  23771.651105    749.710400
PE18 -17932.004720   9512.991467 -24397.792949  -1526.633627
PE19  -9303.502593 -24296.055052 -14103.745192  -3556.631730
PE21  17434.523977 -16303.535642  17502.728323   -730.339992
PE24 -28972.667125   5901.511341   1062.450099   -578.699049
PE25 -17670.723530  16234.533189 -17324.938412   -571.560795
PE26  12049.751996 -26302.864489   6243.805100  -1067.835710
PE27  28814.663895  -6800.632346     87.807295   -283.625969
PE30  22405.553606   7402.159058 -17893.346168   -456.923351
PE31 -23133.962927  -6628.133004  17235.199903   -495.577284
PE33    157.220811 -27221.650673 -11605.015996   -457.299781
PE34     20.819031  27156.784838  11768.732501   -513.710222
PE36 -12411.310414  25898.880578  -7201.589767   -364.261682
PG01  13856.414798 -21669.251220   5529.983503    377.685660
PG02 -16105.345665   3888.750048 -20141.416742   -653.231875
PG03  17068.635514 -12762.117285 -15882.550193   -219.429819
PG04   7562.924389 -14665.663071 -20784.337354   -173.194896
PG05 -26038.189336   5278.392574   1844.042810    -79.469330
PG06  -9356.586554 -13131.779966 -21024.997881    278.534826
PG07   3346.183465 -24407.363243   9635.349890    321.022472
PG08  14560.614223  -5560.360587  21508.193698    -65.275933
PG09  -2748.765680 -21524.061209 -15359.095006   -341.543858
PG10  13211.403189  12103.321588  19849.013932   -390.424028
PG11 -16985.227542   2298.384772 -20286.956083    -34.565424
PG12 -20738.370814  10005.802394 -13395.791298   -205.309126
PG13 -17540.088657  -4373.970574  19366.412187    299.861160
PG14 -11584.482589 -13325.179225  19861.445371   -104.664535
PG15 -13800.870660   8043.738171  20840.289006    -66.426346
PG16  26715.875197   1033.676290  -2298.418200   -494.815997
PG17 -13842.549375 -22628.615515    886.421011    604.414036
PG18  -4644.298827  24524.744590   8910.869168    187.350484
PG19 -16872.149879 -19477.765723  -7117.572218    148.630764
PG20 -25035.344977    446.425982  -8491.301617    515.675726
PG21  16522.330692 -13586.533748  15943.741192    160.692676
PG22  17856.381783  17618.856975  -8586.123514    248.502492
PG23    822.329448  15063.193122  21848.074952    -17.318587
PG24 -14440.523469  19647.759406   9717.173322    251.922128
PG25  -7125.726433  15456.628239 -20611.509559    316.194897
PG26  22575.514028   5942.544959 -13038.676387    200.971412
PG27  19388.836708   7143.422789  16698.892627    190.364722
PG28 -19136.294367 -10380.368951  15567.523365    367.791045
PG29    456.786391  21106.967685 -16130.632348   -506.595550
PG30  -3661.153871 -20641.880076  16240.440571   -525.195006
PG31  11714.737232  10652.221666 -21393.796131   -174.814826
PG32  16603.102607  20819.371945  -1213.392402   -112.384854
PJ02 -34510.644097  18935.455352 -10480.060306     -2.974619
PJ03 -20201.003726  28591.222611 -18916.221846     -1.727406
PR01  -9158.596806   7564.516723  22583.005973      8.081715
PR02  10402.690887  15121.622139  17792.344995    516.472324
PR03  21906.825489  12902.537161   2445.203924     55.493085
PR04  20927.321981   3723.015586 -14073.572738    138.296857
PR05   8520.088337  -7533.552684 -22816.860237     91.721309
PR07 -22115.161571 -12563.670056  -1549.545442     34.249542
PR08 -20888.466214  -3414.866294  14281.673988    -64.770269
PR09   1930.921066 -13869.041364  21318.236838     51.513730
PR11 -21932.953675   8906.814545   9527.119483     40.438708
PR12 -17472.895026  16228.651989  -9007.670373     18.083112
PR13  -3404.183358  14191.613608 -20937.850328    -21.362852
PR14  13972.878813   3168.010367 -21091.364221     76.871586
PR15  22172.535460  -9117.575219  -8694.556827     96.599773
PR17   8873.064794  15172.438699  18475.840808    520.333226
PR18  10339.299031  -2496.581021  23191.669440    114.634142
PR19   7361.488365 -17976.126901  16526.739736   -186.591351
PR20  -1053.416414 -25328.607812  -2590.704397    -69.280480
PR21  -9085.560307 -13901.686660 -19373.127205   -295.919140
PR22 -10238.303899   3567.983139 -23114.717478   -178.957316
PR24   2057.689657  25209.625911   3289.769478     90.619786
EOF
